ONEWEB-0262             
1 48980U 21060P   25239.08320237  .00000001  00000+0 -29782-4 0  9997
2 48980  87.9008 287.3916 0001612  96.1031 264.0284 13.16595275200922
ONEWEB-0263             
1 48981U 21060Q   25239.11486216  .00000088  00000+0  19572-3 0  9991
2 48981  87.9004 287.4084 0001626  83.4913 276.6403 13.16593178200897
ONEWEB-0264             
1 48982U 21060R   25239.07606757 -.00000007  00000+0 -52557-4 0  9995
2 48982  87.9002 287.4208 0002026  85.8115 274.3248 13.16596737200895
ONEWEB-0266             
1 48984U 21060T   25239.09744822  .00000017  00000+0  10092-4 0  9992
2 48984  87.9008 287.3928 0001877 100.2669 259.8674 13.16593548200887
ONEWEB-0267             
1 48985U 21060U   25239.10852742  .00000050  00000+0  97503-4 0  9995
2 48985  87.9006 287.3931 0001845  86.9607 273.1735 13.16593237200890
ONEWEB-0268             
1 48986U 21060V   25239.07685959  .00000020  00000+0  17742-4 0  9990
2 48986  87.9006 287.4053 0002011  92.1218 268.0143 13.16594279201153
ONEWEB-0269             
1 48987U 21060W   25239.13385530  .00000092  00000+0  20768-3 0  9990
2 48987  87.9002 287.4254 0002051  96.9540 263.1824 13.16592692200931
ONEWEB-0270             
1 48988U 21060X   25239.15127838 -.00000006  00000+0 -50564-4 0  9993
2 48988  87.9008 287.3924 0001567  85.0626 275.0683 13.16593588200970
ONEWEB-0271             
1 48989U 21060Y   25239.06261408  .00000098  00000+0  22370-3 0  9998
2 48989  87.9008 287.3940 0001834  86.8928 273.2413 13.16593424200969
ONEWEB-0272             
1 48990U 21060Z   25239.08478401  .00000013  00000+0  95959-6 0  9998
2 48990  87.9004 287.4186 0001986  87.2263 272.9095 13.16595419200918
ONEWEB-0273             
1 48991U 21060AA  25238.87895962  .00000052  00000+0  10159-3 0  9999
2 48991  87.9006 287.4465 0001758  92.8178 267.3154 13.16593375200862
ONEWEB-0274             
1 48992U 21060AB  25238.82829158  .00000017  00000+0  10548-4 0  9993
2 48992  87.9003 287.4893 0002263  87.5590 272.5800 13.16593467200897
ONEWEB-0275             
1 48993U 21060AC  25239.12118602  .00000148  00000+0  35470-3 0  9998
2 48993  87.9007 287.3933 0001978  91.0196 269.1161 13.16593391200865
ONEWEB-0276             
1 48994U 21060AD  25239.07844961  .00000057  00000+0  11520-3 0  9996
2 48994  87.9009 287.3989 0001780  95.9584 264.1750 13.16594209200873
ONEWEB-0277             
1 48995U 21060AE  25239.09110559  .00000039  00000+0  69514-4 0  9995
2 48995  87.9005 287.4301 0001796  83.6694 276.4641 13.16594157200868
ONEWEB-0278             
1 48996U 21060AF  25238.85362286 -.00000111  00000+0 -32348-3 0  9992
2 48996  87.9007 287.4403 0001898 101.5473 258.5871 13.16595069200962
ONEWEB-0279             
1 48997U 21060AG  25239.08952853  .00000004  00000+0 -23025-4 0  9997
2 48997  87.9006 287.3886 0001944  84.9296 275.2057 13.16595095200922
