[{"OBJECT_NAME":"ONEWEB-0262","OBJECT_ID":"2021-060P","EPOCH":"2025-08-27T01:59:48.684768","MEAN_MOTION":13.16595275,"ECCENTRICITY":0.00016128,"INCLINATION":87.9008,"RA_OF_ASC_NODE":287.3916,"ARG_OF_PERICENTER":96.1031,"MEAN_ANOMALY":264.0284,"EPHEMERIS_TYPE":0,"CLASSIFICATION_TYPE":"U","NORAD_CAT_ID":48980,"ELEMENT_SET_NO":999,"REV_AT_EPOCH":20092,"BSTAR":-2.9781815e-5,"MEAN_MOTION_DOT":1.0e-8,"MEAN_MOTION_DDOT":0},{"OBJECT_NAME":"ONEWEB-0263","OBJECT_ID":"2021-060Q","EPOCH":"2025-08-27T02:45:24.090624","MEAN_MOTION":13.16593178,"ECCENTRICITY":0.00016268,"INCLINATION":87.9004,"RA_OF_ASC_NODE":287.4084,"ARG_OF_PERICENTER":83.4913,"MEAN_ANOMALY":276.6403,"EPHEMERIS_TYPE":0,"CLASSIFICATION_TYPE":"U","NORAD_CAT_ID":48981,"ELEMENT_SET_NO":999,"REV_AT_EPOCH":20089,"BSTAR":0.00019572323,"MEAN_MOTION_DOT":8.8e-7,"MEAN_MOTION_DDOT":0},{"OBJECT_NAME":"ONEWEB-0264","OBJECT_ID":"2021-060R","EPOCH":"2025-08-27T01:49:32.238048","MEAN_MOTION":13.16596737,"ECCENTRICITY":0.00020267,"INCLINATION":87.9002,"RA_OF_ASC_NODE":287.4208,"ARG_OF_PERICENTER":85.8115,"MEAN_ANOMALY":274.3248,"EPHEMERIS_TYPE":0,"CLASSIFICATION_TYPE":"U","NORAD_CAT_ID":48982,"ELEMENT_SET_NO":999,"REV_AT_EPOCH":20089,"BSTAR":-5.25573e-5,"MEAN_MOTION_DOT":-7.0e-8,"MEAN_MOTION_DDOT":0},{"OBJECT_NAME":"ONEWEB-0266","OBJECT_ID":"2021-060T","EPOCH":"2025-08-27T02:20:19.526208","MEAN_MOTION":13.16593548,"ECCENTRICITY":0.00018776,"INCLINATION":87.9008,"RA_OF_ASC_NODE":287.3928,"ARG_OF_PERICENTER":100.2669,"MEAN_ANOMALY":259.8674,"EPHEMERIS_TYPE":0,"CLASSIFICATION_TYPE":"U","NORAD_CAT_ID":48984,"ELEMENT_SET_NO":999,"REV_AT_EPOCH":20088,"BSTAR":1.0091921e-5,"MEAN_MOTION_DOT":1.7e-7,"MEAN_MOTION_DDOT":0},{"OBJECT_NAME":"ONEWEB-0267","OBJECT_ID":"2021-060U","EPOCH":"2025-08-27T02:36:16.769088","MEAN_MOTION":13.16593237,"ECCENTRICITY":0.00018459,"INCLINATION":87.9006,"RA_OF_ASC_NODE":287.3931,"ARG_OF_PERICENTER":86.9607,"MEAN_ANOMALY":273.1735,"EPHEMERIS_TYPE":0,"CLASSIFICATION_TYPE":"U","NORAD_CAT_ID":48985,"ELEMENT_SET_NO":999,"REV_AT_EPOCH":20089,"BSTAR":9.7502619e-5,"MEAN_MOTION_DOT":5.0e-7,"MEAN_MOTION_DDOT":0},{"OBJECT_NAME":"ONEWEB-0268","OBJECT_ID":"2021-060V","EPOCH":"2025-08-27T01:50:40.668576","MEAN_MOTION":13.16594279,"ECCENTRICITY":0.00020111,"INCLINATION":87.9006,"RA_OF_ASC_NODE":287.4053,"ARG_OF_PERICENTER":92.1218,"MEAN_ANOMALY":268.0143,"EPHEMERIS_TYPE":0,"CLASSIFICATION_TYPE":"U","NORAD_CAT_ID":48986,"ELEMENT_SET_NO":999,"REV_AT_EPOCH":20115,"BSTAR":1.7742136e-5,"MEAN_MOTION_DOT":2.0e-7,"MEAN_MOTION_DDOT":0},{"OBJECT_NAME":"ONEWEB-0269","OBJECT_ID":"2021-060W","EPOCH":"2025-08-27T03:12:45.097920","MEAN_MOTION":13.16592692,"ECCENTRICITY":0.00020519,"INCLINATION":87.9002,"RA_OF_ASC_NODE":287.4254,"ARG_OF_PERICENTER":96.954,"MEAN_ANOMALY":263.1824,"EPHEMERIS_TYPE":0,"CLASSIFICATION_TYPE":"U","NORAD_CAT_ID":48987,"ELEMENT_SET_NO":999,"REV_AT_EPOCH":20093,"BSTAR":0.00020768378,"MEAN_MOTION_DOT":9.2e-7,"MEAN_MOTION_DDOT":0},{"OBJECT_NAME":"ONEWEB-0270","OBJECT_ID":"2021-060X","EPOCH":"2025-08-27T03:37:50.452032","MEAN_MOTION":13.16593588,"ECCENTRICITY":0.00015671,"INCLINATION":87.9008,"RA_OF_ASC_NODE":287.3924,"ARG_OF_PERICENTER":85.0626,"MEAN_ANOMALY":275.0683,"EPHEMERIS_TYPE":0,"CLASSIFICATION_TYPE":"U","NORAD_CAT_ID":48988,"ELEMENT_SET_NO":999,"REV_AT_EPOCH":20097,"BSTAR":-5.0563687e-5,"MEAN_MOTION_DOT":-6.0e-8,"MEAN_MOTION_DDOT":0},{"OBJECT_NAME":"ONEWEB-0271","OBJECT_ID":"2021-060Y","EPOCH":"2025-08-27T01:30:09.856512","MEAN_MOTION":13.16593424,"ECCENTRICITY":0.00018342,"INCLINATION":87.9008,"RA_OF_ASC_NODE":287.394,"ARG_OF_PERICENTER":86.8928,"MEAN_ANOMALY":273.2413,"EPHEMERIS_TYPE":0,"CLASSIFICATION_TYPE":"U","NORAD_CAT_ID":48989,"ELEMENT_SET_NO":999,"REV_AT_EPOCH":20096,"BSTAR":0.00022369761,"MEAN_MOTION_DOT":9.8e-7,"MEAN_MOTION_DDOT":0},{"OBJECT_NAME":"ONEWEB-0272","OBJECT_ID":"2021-060Z","EPOCH":"2025-08-27T02:02:05.338464","MEAN_MOTION":13.16595419,"ECCENTRICITY":0.00019866,"INCLINATION":87.9004,"RA_OF_ASC_NODE":287.4186,"ARG_OF_PERICENTER":87.2263,"MEAN_ANOMALY":272.9095,"EPHEMERIS_TYPE":0,"CLASSIFICATION_TYPE":"U","NORAD_CAT_ID":48990,"ELEMENT_SET_NO":999,"REV_AT_EPOCH":20091,"BSTAR":9.59593e-7,"MEAN_MOTION_DOT":1.3e-7,"MEAN_MOTION_DDOT":0},{"OBJECT_NAME":"ONEWEB-0273","OBJECT_ID":"2021-060AA","EPOCH":"2025-08-26T21:05:42.111168","MEAN_MOTION":13.16593375,"ECCENTRICITY":0.00017589,"INCLINATION":87.9006,"RA_OF_ASC_NODE":287.4465,"ARG_OF_PERICENTER":92.8178,"MEAN_ANOMALY":267.3154,"EPHEMERIS_TYPE":0,"CLASSIFICATION_TYPE":"U","NORAD_CAT_ID":48991,"ELEMENT_SET_NO":999,"REV_AT_EPOCH":20086,"BSTAR":0.00010159311,"MEAN_MOTION_DOT":5.2e-7,"MEAN_MOTION_DDOT":0},{"OBJECT_NAME":"ONEWEB-0274","OBJECT_ID":"2021-060AB","EPOCH":"2025-08-26T19:52:44.392512","MEAN_MOTION":13.16593467,"ECCENTRICITY":0.00022636,"INCLINATION":87.9003,"RA_OF_ASC_NODE":287.4893,"ARG_OF_PERICENTER":87.559,"MEAN_ANOMALY":272.58,"EPHEMERIS_TYPE":0,"CLASSIFICATION_TYPE":"U","NORAD_CAT_ID":48992,"ELEMENT_SET_NO":999,"REV_AT_EPOCH":20089,"BSTAR":1.0548496e-5,"MEAN_MOTION_DOT":1.7e-7,"MEAN_MOTION_DDOT":0},{"OBJECT_NAME":"ONEWEB-0275","OBJECT_ID":"2021-060AC","EPOCH":"2025-08-27T02:54:30.472128","MEAN_MOTION":13.16593391,"ECCENTRICITY":0.00019784,"INCLINATION":87.9007,"RA_OF_ASC_NODE":287.3933,"ARG_OF_PERICENTER":91.0196,"MEAN_ANOMALY":269.1161,"EPHEMERIS_TYPE":0,"CLASSIFICATION_TYPE":"U","NORAD_CAT_ID":48993,"ELEMENT_SET_NO":999,"REV_AT_EPOCH":20086,"BSTAR":0.0003546974,"MEAN_MOTION_DOT":1.48e-6,"MEAN_MOTION_DDOT":0},{"OBJECT_NAME":"ONEWEB-0276","OBJECT_ID":"2021-060AD","EPOCH":"2025-08-27T01:52:58.046304","MEAN_MOTION":13.16594209,"ECCENTRICITY":0.00017807,"INCLINATION":87.9009,"RA_OF_ASC_NODE":287.3989,"ARG_OF_PERICENTER":95.9584,"MEAN_ANOMALY":264.175,"EPHEMERIS_TYPE":0,"CLASSIFICATION_TYPE":"U","NORAD_CAT_ID":48994,"ELEMENT_SET_NO":999,"REV_AT_EPOCH":20087,"BSTAR":0.00011519956,"MEAN_MOTION_DOT":5.7e-7,"MEAN_MOTION_DDOT":0},{"OBJECT_NAME":"ONEWEB-0277","OBJECT_ID":"2021-060AE","EPOCH":"2025-08-27T02:11:11.522976","MEAN_MOTION":13.16594157,"ECCENTRICITY":0.00017966,"INCLINATION":87.9005,"RA_OF_ASC_NODE":287.4301,"ARG_OF_PERICENTER":83.6694,"MEAN_ANOMALY":276.4641,"EPHEMERIS_TYPE":0,"CLASSIFICATION_TYPE":"U","NORAD_CAT_ID":48995,"ELEMENT_SET_NO":999,"REV_AT_EPOCH":20086,"BSTAR":6.9513544e-5,"MEAN_MOTION_DOT":3.9e-7,"MEAN_MOTION_DDOT":0},{"OBJECT_NAME":"ONEWEB-0278","OBJECT_ID":"2021-060AF","EPOCH":"2025-08-26T20:29:13.015104","MEAN_MOTION":13.16595069,"ECCENTRICITY":0.00018988,"INCLINATION":87.9007,"RA_OF_ASC_NODE":287.4403,"ARG_OF_PERICENTER":101.5473,"MEAN_ANOMALY":258.5871,"EPHEMERIS_TYPE":0,"CLASSIFICATION_TYPE":"U","NORAD_CAT_ID":48996,"ELEMENT_SET_NO":999,"REV_AT_EPOCH":20096,"BSTAR":-0.00032347747,"MEAN_MOTION_DOT":-1.11e-6,"MEAN_MOTION_DDOT":0},{"OBJECT_NAME":"ONEWEB-0279","OBJECT_ID":"2021-060AG","EPOCH":"2025-08-27T02:08:55.264992","MEAN_MOTION":13.16595095,"ECCENTRICITY":0.00019442,"INCLINATION":87.9006,"RA_OF_ASC_NODE":287.3886,"ARG_OF_PERICENTER":84.9296,"MEAN_ANOMALY":275.2057,"EPHEMERIS_TYPE":0,"CLASSIFICATION_TYPE":"U","NORAD_CAT_ID":48997,"ELEMENT_SET_NO":999,"REV_AT_EPOCH":20092,"BSTAR":-2.302536e-5,"MEAN_MOTION_DOT":4.0e-8,"MEAN_MOTION_DDOT":0}]
